COSMOS 2433 (720)       
1 32275U 07052A   22206.52298780 -.00000072  00000+0  00000+0 0  9994
2 32275  66.0825   3.4065 0001538 176.1262 130.3490  2.13104106114776
COSMOS 2432 (719)       
1 32276U 07052B   22207.60268101 -.00000071  00000+0  00000+0 0  9998
2 32276  66.0969   3.4731 0008278 341.4439  21.5644  2.13103348114800
COSMOS 2434 (721)       
1 32393U 07065A   22207.43500053  .00000087  00000+0  00000+0 0  9994
2 32393  64.3779 240.0953 0000978 140.4875  35.3626  2.13103142113506
COSMOS 2436 (723)       
1 32395U 07065C   22207.59003836  .00000087  00000+0  00000+0 0  9990
2 32395  64.3868 240.1480 0014620 352.2496  78.4028  2.13102990113441
COSMOS 2456 (730)       
1 36111U 09070A   22207.64202473 -.00000031  00000+0  00000+0 0  9992
2 36111  64.3609 119.7095 0004255 314.6257 185.0745  2.13099364 98170
COSMOS 2457 (733)       
1 36112U 09070B   22207.52034995 -.00000033  00000+0  00000+0 0  9994
2 36112  64.3452 119.5877 0004048 174.6107 359.3468  2.13101520 98177
COSMOS 2461 (735)       
1 36401U 10007B   22207.48008661 -.00000072  00000+0  00000+0 0  9996
2 36401  65.9683   2.2076 0019986  13.6134 164.4978  2.13103683 96529
COSMOS 2460 (732)       
1 36402U 10007C   22207.31278109 -.00000072  00000+0  00000+0 0  9995
2 36402  65.9548   2.1631 0002607  96.4377 262.1152  2.13106369 96519
COSMOS 2464 (736)       
1 37139U 10041C   22207.56075345  .00000087  00000+0  00000+0 0  9990
2 37139  63.9776 239.1479 0027900   6.5915 123.6669  2.13100802 92586
COSMOS 2476 (744)       
1 37867U 11064A   22207.10910612 -.00000036  00000+0  00000+0 0  9994
2 37867  64.6493 121.0986 0021954 238.7846 117.9195  2.13101869 83501
COSMOS 2477 (745)       
1 37868U 11064B   22207.18462753 -.00000036  00000+0  00000+0 0  9991
2 37868  64.6576 121.1611 0019270 240.3708 352.3664  2.13101758 83462
COSMOS 2475 (743)       
1 37869U 11064C   22207.57528175 -.00000031  00000+0  00000+0 0  9991
2 37869  64.6655 121.1561 0023637 256.8853 233.6090  2.13102144 83486
COSMOS 2485 (747)       
1 39155U 13019A   22207.29285519 -.00000034  00000+0  00000+0 0  9997
2 39155  64.8139 121.5288 0022415 234.6135 307.4519  2.13102026 71982
COSMOS 2492 (754)       
1 39620U 14012A   22206.59992060 -.00000074  00000+0  00000+0 0  9990
2 39620  65.8390   1.8632 0011033 331.2782  73.6315  2.13103135 64922
COSMOS 2500 (755)       
1 40001U 14032A   22207.61795896 -.00000073  00000+0  00000+0 0  9998
2 40001  65.7799   1.6867 0006234 179.2577 145.2182  2.13102367 63154
COSMOS 2501 (702K)      
1 40315U 14075A   22207.39453076  .00000086  00000+0  00000+0 0  9992
2 40315  63.6855 239.8073 0019308 211.2295 110.0279  2.13101489 59556
COSMOS 2514 (751)       
1 41330U 16008A   22207.42450829 -.00000074  00000+0  00000+0 0  9993
2 41330  65.5797   1.3760 0009962 198.8061 161.1620  2.13102881 50321
COSMOS 2516 (753)       
1 41554U 16032A   22207.56981416  .00000086  00000+0  00000+0 0  9996
2 41554  63.9107 240.0882 0014901 216.1447 158.8252  2.13106436 47931
COSMOS 2522 (752)       
1 42939U 17055A   22207.35379913  .00000087  00000+0  00000+0 0  9991
2 42939  64.1446 240.5022 0009616 242.6564 182.7355  2.13101984 37684
COSMOS 2527 (756)       
1 43508U 18053A   22207.46221730 -.00000032  00000+0  00000+0 0  9999
2 43508  64.9763 121.5313 0008359 237.0938 303.5713  2.13102535 31974
COSMOS 2529 (757)       
1 43687U 18086A   22206.58786229  .00000087  00000+0  00000+0 0  9993
2 43687  64.3594 240.8550 0011338 262.4893 250.8338  2.13102167 28973
COSMOS 2534 (758)       
1 44299U 19030A   22206.29379720  .00000087  00000+0  00000+0 0  9995
2 44299  64.4315 240.7535 0013689 281.5057 140.7721  2.13102028 24618
COSMOS 2544 (759)       
1 44850U 19088A   22207.41006749 -.00000032  00000+0  16595+1 0  9992
2 44850  64.9615 121.3843 0013041 262.0459 282.0466  2.13102293 20400
COSMOS 2545 (760)       
1 45358U 20018A   22207.17741894 -.00000075  00000+0  00000+0 0  9991
2 45358  64.9170   1.9605 0007021 236.0572 338.9860  2.13102687 18354
COSMOS 2547 (705K)      
1 46805U 20075A   22207.56327019  .00000087  00000+0  00000+0 0  9996
2 46805  64.6560 240.1460 0008638 245.2629 118.7444  2.13103228 13616
COSMOS 2557 (706K)      
1 52984U 22075A   22207.71475941 -.00000073  00000+0  10000-3 0  9999
2 52984  64.8178   4.1467 0010470 282.0649  76.4440  2.13101882   404
